[{"OBJECT_NAME":"STARLINK-6368","OBJECT_ID":"2023-094S","EPOCH":"2026-03-09T22:00:01.999584","MEAN_MOTION":15.12976529,"ECCENTRICITY":0.0001762,"INCLINATION":43.0008,"RA_OF_ASC_NODE":28.4054,"ARG_OF_PERICENTER":256.3705,"MEAN_ANOMALY":50.16,"EPHEMERIS_TYPE":0,"CLASSIFICATION_TYPE":"U","NORAD_CAT_ID":57234,"ELEMENT_SET_NO":999,"REV_AT_EPOCH":567,"BSTAR":0.069359819,"MEAN_MOTION_DOT":0.01355316,"MEAN_MOTION_DDOT":0},{"OBJECT_NAME":"KUIPER-00268","OBJECT_ID":"2026-030AC","EPOCH":"2026-03-09T15:02:25.520928","MEAN_MOTION":15.36041233,"ECCENTRICITY":0.0002948,"INCLINATION":51.8839,"RA_OF_ASC_NODE":219.4073,"ARG_OF_PERICENTER":35.5768,"MEAN_ANOMALY":324.5415,"EPHEMERIS_TYPE":0,"CLASSIFICATION_TYPE":"U","NORAD_CAT_ID":67790,"ELEMENT_SET_NO":999,"REV_AT_EPOCH":508,"BSTAR":0.0010186,"MEAN_MOTION_DOT":0.00036094,"MEAN_MOTION_DDOT":0}]
